OBJECT_NAME,OBJECT_ID,EPOCH,MEAN_MOTION,ECCENTRICITY,INCLINATION,RA_OF_ASC_NODE,ARG_OF_PERICENTER,MEAN_ANOMALY,EPHEMERIS_TYPE,CLASSIFICATION_TYPE,NORAD_CAT_ID,ELEMENT_SET_NO,REV_AT_EPOCH,BSTAR,MEAN_MOTION_DOT,MEAN_MOTION_DDOT
ONEWEB-0497,2022-138D,2026-06-13T19:32:47.645376,13.19724285,.0001776,87.9172,305.6347,99.7073,260.4261,0,U,54116,999,17636,-.38501E-4,-.2E-7,0
ONEWEB-0499,2022-138E,2026-06-13T20:58:05.570112,13.19726398,.0001608,87.9165,305.6320,95.4359,264.6957,0,U,54117,999,17638,.82656E-4,.46E-6,0
ONEWEB-0500,2022-138F,2026-06-13T19:12:19.064160,13.19724480,.0001909,87.9176,305.6408,100.1939,259.9409,0,U,54118,999,17638,.10806E-4,.17E-6,0
ONEWEB-0501,2022-138G,2026-06-13T19:55:31.714752,13.19722904,.0001401,87.9173,305.6345,100.0063,260.1228,0,U,54119,999,17636,-.14351E-3,-.45E-6,0
ONEWEB-0502,2022-138H,2026-06-13T19:35:03.320160,13.19723521,.0001632,87.9174,305.6262,94.4415,265.6904,0,U,54120,999,17638,-.58163E-4,-.1E-6,0
ONEWEB-0503,2022-138J,2026-06-13T19:19:08.778144,13.19724456,.0001933,87.9177,305.6342,90.4212,269.7142,0,U,54121,999,17637,.3061E-4,.25E-6,0
ONEWEB-0504,2022-138K,2026-06-13T20:50:07.963008,13.19724577,.0001654,87.9175,305.6265,93.5193,266.6129,0,U,54122,999,17639,.94001E-4,.51E-6,0
ONEWEB-0505,2022-138L,2026-06-13T20:45:35.284608,13.19725936,.0001385,87.9173,305.6281,95.6358,264.4933,0,U,54123,999,17637,.11196E-3,.58E-6,0
ONEWEB-0506,2022-138M,2026-06-13T20:09:10.194048,13.19723499,.0001529,87.9176,305.6301,98.7315,261.3991,0,U,54124,999,17636,-.86582E-4,-.22E-6,0
ONEWEB-0507,2022-138N,2026-06-13T20:38:45.547296,13.19725352,.0001639,87.9165,305.6385,100.1067,260.0251,0,U,54125,999,17641,.14835E-4,.19E-6,0
ONEWEB-0508,2022-138P,2026-06-13T20:34:11.733600,13.19724126,.0001458,87.9166,305.6387,106.1317,253.9977,0,U,54126,999,17639,-.13906E-3,-.43E-6,0
ONEWEB-0509,2022-138Q,2026-06-13T19:57:47.683296,13.19719164,.0001679,87.9177,305.6330,98.8410,261.2913,0,U,54127,999,17636,-.10266E-3,-.28E-6,0
ONEWEB-0510,2022-138R,2026-06-13T19:10:09.770016,13.20772076,.0002419,87.9193,275.1111,96.7916,263.3493,0,U,54128,999,17883,.52413E-4,.34E-6,0
ONEWEB-0511,2022-138S,2026-06-13T19:53:16.235232,13.19725754,.0001767,87.9173,305.6365,88.9253,271.2082,0,U,54129,999,17639,-.12631E-3,-.38E-6,0
ONEWEB-0512,2022-138T,2026-06-13T19:41:53.066112,13.19725231,.0001523,87.9167,305.6433,92.7312,267.3995,0,U,54130,999,17636,.2092E-3,.97E-6,0
ONEWEB-0513,2022-138U,2026-06-13T19:51:58.040640,13.20268555,.0001235,87.9173,305.5864,70.0205,290.1061,0,U,54131,999,17627,-.43396E-4,-.5E-7,0
ONEWEB-0514,2022-138V,2026-06-13T20:04:37.861248,13.19724762,.000198,87.9177,305.6336,96.9174,263.2184,0,U,54132,999,17638,-.12065E-3,-.35E-6,0
ONEWEB-0515,2022-138W,2026-06-13T20:39:50.688576,13.20770160,.0002674,87.9198,275.0929,113.1340,247.0076,0,U,54133,999,17886,-.32104E-4,0,0
ONEWEB-0516,2022-138X,2026-06-13T19:28:14.053728,13.19724284,.000178,87.9164,305.6453,102.4204,257.7128,0,U,54134,999,17638,-.19797E-3,-.66E-6,0
ONEWEB-0517,2022-138Y,2026-06-13T20:47:50.777088,13.19724177,.0001964,87.9174,305.6262,89.2808,270.8550,0,U,54135,999,17639,-.95641E-4,-.25E-6,0
ONEWEB-0518,2022-138Z,2026-06-13T19:25:59.604960,13.19728260,.0001806,87.9164,305.6476,104.6039,255.5294,0,U,54136,999,17638,.12826E-3,.64E-6,0
ONEWEB-0519,2022-138AA,2026-06-13T20:02:22.362720,13.19726147,.0001923,87.9177,305.6334,92.0266,268.1087,0,U,54137,999,17639,-.21264E-3,-.72E-6,0
ONEWEB-0520,2022-138AB,2026-06-13T20:52:24.326400,13.19724753,.0001572,87.9174,305.6266,99.9702,260.1608,0,U,54138,999,17638,-.28525E-4,.2E-7,0
ONEWEB-0521,2022-138AC,2026-06-13T19:50:59.140896,13.19724835,.0001978,87.9176,305.6238,92.2387,267.8972,0,U,54139,999,17632,-.11064E-3,-.31E-6,0
ONEWEB-0522,2022-138AD,2026-06-13T19:21:25.303104,13.19724556,.0001703,87.9176,305.6303,97.6154,262.5172,0,U,54140,999,17636,.3012E-4,.25E-6,0
ONEWEB-0523,2022-138AE,2026-06-13T20:20:27.112128,13.20770381,.0002791,87.9194,275.1057,100.6553,259.4894,0,U,54141,999,17886,-.24167E-3,-.85E-6,0
ONEWEB-0524,2022-138AF,2026-06-13T20:05:54.651840,13.20770707,.0002533,87.9193,275.1048,118.5332,241.6057,0,U,54142,999,17886,-.26828E-3,-.96E-6,0
ONEWEB-0525,2022-138AG,2026-06-13T19:48:42.342048,13.19724841,.0001522,87.9174,305.6343,104.7270,255.4032,0,U,54143,999,17638,-.80508E-4,-.19E-6,0
ONEWEB-0526,2022-138AH,2026-06-13T20:36:28.442592,13.19725952,.000176,87.9175,305.6280,102.0803,258.0527,0,U,54144,999,17636,-.10435E-3,-.29E-6,0
ONEWEB-0529,2022-138AJ,2026-06-13T20:41:01.249728,13.19724584,.0001622,87.9166,305.6367,101.2626,258.8689,0,U,54145,999,17638,-.44738E-4,-.5E-7,0
