ONEWEB-0497             
1 54116U 22138D   26164.81444034 -.00000002  00000+0 -38501-4 0  9994
2 54116  87.9172 305.6347 0001776  99.7073 260.4261 13.19724285176363
ONEWEB-0499             
1 54117U 22138E   26164.87367558  .00000046  00000+0  82656-4 0  9992
2 54117  87.9165 305.6320 0001608  95.4359 264.6957 13.19726398176388
ONEWEB-0500             
1 54118U 22138F   26164.80022065  .00000017  00000+0  10806-4 0  9993
2 54118  87.9176 305.6408 0001909 100.1939 259.9409 13.19724480176389
ONEWEB-0501             
1 54119U 22138G   26164.83022818 -.00000045  00000+0 -14351-3 0  9994
2 54119  87.9173 305.6345 0001401 100.0063 260.1228 13.19722904176361
ONEWEB-0502             
1 54120U 22138H   26164.81601065 -.00000010  00000+0 -58163-4 0  9993
2 54120  87.9174 305.6262 0001632  94.4415 265.6904 13.19723521176384
ONEWEB-0503             
1 54121U 22138J   26164.80496271  .00000025  00000+0  30610-4 0  9995
2 54121  87.9177 305.6342 0001933  90.4212 269.7142 13.19724456176378
ONEWEB-0504             
1 54122U 22138K   26164.86814772  .00000051  00000+0  94001-4 0  9995
2 54122  87.9175 305.6265 0001654  93.5193 266.6129 13.19724577176390
ONEWEB-0505             
1 54123U 22138L   26164.86499172  .00000058  00000+0  11196-3 0  9999
2 54123  87.9173 305.6281 0001385  95.6358 264.4933 13.19725936176371
ONEWEB-0506             
1 54124U 22138M   26164.83970132 -.00000022  00000+0 -86582-4 0  9992
2 54124  87.9176 305.6301 0001529  98.7315 261.3991 13.19723499176366
ONEWEB-0507             
1 54125U 22138N   26164.86024939  .00000019  00000+0  14835-4 0  9997
2 54125  87.9165 305.6385 0001639 100.1067 260.0251 13.19725352176412
ONEWEB-0508             
1 54126U 22138P   26164.85708025 -.00000043  00000+0 -13906-3 0  9998
2 54126  87.9166 305.6387 0001458 106.1317 253.9977 13.19724126176390
ONEWEB-0509             
1 54127U 22138Q   26164.83180189 -.00000028  00000+0 -10266-3 0  9991
2 54127  87.9177 305.6330 0001679  98.8410 261.2913 13.19719164176362
ONEWEB-0510             
1 54128U 22138R   26164.79872419  .00000034  00000+0  52413-4 0  9997
2 54128  87.9193 275.1111 0002419  96.7916 263.3493 13.20772076178833
ONEWEB-0511             
1 54129U 22138S   26164.82866013 -.00000038  00000+0 -12631-3 0  9998
2 54129  87.9173 305.6365 0001767  88.9253 271.2082 13.19725754176394
ONEWEB-0512             
1 54130U 22138T   26164.82075308  .00000097  00000+0  20920-3 0  9992
2 54130  87.9167 305.6433 0001523  92.7312 267.3995 13.19725231176360
ONEWEB-0513             
1 54131U 22138U   26164.82775510 -.00000005  00000+0 -43396-4 0  9999
2 54131  87.9173 305.5864 0001235  70.0205 290.1061 13.20268555176276
ONEWEB-0514             
1 54132U 22138V   26164.83654932 -.00000035  00000+0 -12065-3 0  9996
2 54132  87.9177 305.6336 0001980  96.9174 263.2184 13.19724762176389
ONEWEB-0515             
1 54133U 22138W   26164.86100334  .00000000  00000+0 -32104-4 0  9990
2 54133  87.9198 275.0929 0002674 113.1340 247.0076 13.20770160178869
ONEWEB-0516             
1 54134U 22138X   26164.81127377 -.00000066  00000+0 -19797-3 0  9997
2 54134  87.9164 305.6453 0001780 102.4204 257.7128 13.19724284176387
ONEWEB-0517             
1 54135U 22138Y   26164.86655992 -.00000025  00000+0 -95641-4 0  9990
2 54135  87.9174 305.6262 0001964  89.2808 270.8550 13.19724177176390
ONEWEB-0518             
1 54136U 22138Z   26164.80971765  .00000064  00000+0  12826-3 0  9998
2 54136  87.9164 305.6476 0001806 104.6039 255.5294 13.19728260176381
ONEWEB-0519             
1 54137U 22138AA  26164.83498105 -.00000072  00000+0 -21264-3 0  9991
2 54137  87.9177 305.6334 0001923  92.0266 268.1087 13.19726147176394
ONEWEB-0520             
1 54138U 22138AB  26164.86972600  .00000002  00000+0 -28525-4 0  9992
2 54138  87.9174 305.6266 0001572  99.9702 260.1608 13.19724753176388
ONEWEB-0521             
1 54139U 22138AC  26164.82707339 -.00000031  00000+0 -11064-3 0  9996
2 54139  87.9176 305.6238 0001978  92.2387 267.8972 13.19724835176328
ONEWEB-0522             
1 54140U 22138AD  26164.80654286  .00000025  00000+0  30120-4 0  9994
2 54140  87.9176 305.6303 0001703  97.6154 262.5172 13.19724556176368
ONEWEB-0523             
1 54141U 22138AE  26164.84753602 -.00000085  00000+0 -24167-3 0  9992
2 54141  87.9194 275.1057 0002791 100.6553 259.4894 13.20770381178864
ONEWEB-0524             
1 54142U 22138AF  26164.83743810 -.00000096  00000+0 -26828-3 0  9990
2 54142  87.9193 275.1048 0002533 118.5332 241.6057 13.20770707178867
ONEWEB-0525             
1 54143U 22138AG  26164.82549007 -.00000019  00000+0 -80508-4 0  9993
2 54143  87.9174 305.6343 0001522 104.7270 255.4032 13.19724841176386
ONEWEB-0526             
1 54144U 22138AH  26164.85866253 -.00000029  00000+0 -10435-3 0  9994
2 54144  87.9175 305.6280 0001760 102.0803 258.0527 13.19725952176365
ONEWEB-0529             
1 54145U 22138AJ  26164.86182002 -.00000005  00000+0 -44738-4 0  9997
2 54145  87.9166 305.6367 0001622 101.2626 258.8689 13.19724584176382
